SAOCOM 1A               
1 43641U 18076A   26092.79425913 -.00000165  00000+0 -14137-4 0  9992
2 43641  97.8898 280.6268 0001340  86.1478 273.9889 14.82144488404933
H-2A R/B                
1 43682U 18084L   26092.55019885  .00026368  00000+0  60583-3 0  9993
2 43682  98.8693 315.0546 0023451 301.3895  58.5054 15.42391885409451
CSS (TIANHE)            
1 48274U 21035A   26091.36022109  .00024066  00000+0  27286-3 0  9992
2 48274  41.4670  70.0996 0003721  85.9086 274.2179 15.61804306281152
COSMOS 2550             
1 48865U 21056A   26091.47039022  .00005639  00000+0  17705-3 0  9995
2 48865  67.1445 331.9738 0008328 269.3207  90.6993 15.33839536266954
CZ-2C R/B               
1 52794U 22058K   26092.67252019  .00051433  00000+0  69661-3 0  9991
2 52794  50.1881 194.7552 0041270 303.7949  55.9095 15.56112210213861
CZ-2C R/B               
1 54039U 22132E   26092.76466992  .00062063  00000+0  64740-3 0  9999
2 54039  97.2951  96.8533 0016380  10.9620 349.1993 15.64161176194130
GSLV R/B                
1 54149U 22138AN  26092.58700846  .00003934  00000+0  33832-3 0  9996
2 54149  87.3852 158.3612 0023858  68.0421 292.3343 14.96927290187507
XRISM                   
1 57800U 23137A   26092.80796137  .00009214  00000+0  52046-3 0  9991
2 57800  31.0012 127.6308 0007871 281.4500  78.5255 15.11792770141445
ACS3                    
1 59588U 24077B   26092.82553086  .00024304  00000+0  18999-1 0  9990
2 59588  97.1957  28.5131 0073221  21.9783 338.4494 13.90776433 97554
HTV-X1                  
1 66174U 25241A   26092.51779274  .00001660  00000+0  63790-4 0  9990
2 66174  51.6370 318.2160 0007279 264.5129  95.5023 15.32499008 24598
SZ-21 MODULE            
1 66515U 25246C   26092.61700061  .00050186  00000+0  39708-3 0  9991
2 66515  41.4746  55.8608 0002779 223.0414 137.0212 15.70483759 21833
