[{"OBJECT_NAME":"SAOCOM 1A","OBJECT_ID":"2018-076A","EPOCH":"2026-04-02T19:03:43.988832","MEAN_MOTION":14.82144488,"ECCENTRICITY":0.000134,"INCLINATION":97.8898,"RA_OF_ASC_NODE":280.6268,"ARG_OF_PERICENTER":86.1478,"MEAN_ANOMALY":273.9889,"EPHEMERIS_TYPE":0,"CLASSIFICATION_TYPE":"U","NORAD_CAT_ID":43641,"ELEMENT_SET_NO":999,"REV_AT_EPOCH":40493,"BSTAR":-1.4137e-5,"MEAN_MOTION_DOT":-1.65e-6,"MEAN_MOTION_DDOT":0},{"OBJECT_NAME":"H-2A R/B","OBJECT_ID":"2018-084L","EPOCH":"2026-04-02T13:12:17.180640","MEAN_MOTION":15.42391885,"ECCENTRICITY":0.00234512,"INCLINATION":98.8693,"RA_OF_ASC_NODE":315.0546,"ARG_OF_PERICENTER":301.3895,"MEAN_ANOMALY":58.5054,"EPHEMERIS_TYPE":0,"CLASSIFICATION_TYPE":"U","NORAD_CAT_ID":43682,"ELEMENT_SET_NO":999,"REV_AT_EPOCH":40945,"BSTAR":0.00060582543,"MEAN_MOTION_DOT":0.00026368,"MEAN_MOTION_DDOT":0},{"OBJECT_NAME":"CSS (TIANHE)","OBJECT_ID":"2021-035A","EPOCH":"2026-04-01T08:38:43.102176","MEAN_MOTION":15.61804306,"ECCENTRICITY":0.00037219,"INCLINATION":41.467,"RA_OF_ASC_NODE":70.0996,"ARG_OF_PERICENTER":85.9086,"MEAN_ANOMALY":274.2179,"EPHEMERIS_TYPE":0,"CLASSIFICATION_TYPE":"U","NORAD_CAT_ID":48274,"ELEMENT_SET_NO":999,"REV_AT_EPOCH":28115,"BSTAR":0.00027286117,"MEAN_MOTION_DOT":0.00024066,"MEAN_MOTION_DDOT":0},{"OBJECT_NAME":"COSMOS 2550","OBJECT_ID":"2021-056A","EPOCH":"2026-04-01T11:17:21.715008","MEAN_MOTION":15.33839536,"ECCENTRICITY":0.00083284,"INCLINATION":67.1445,"RA_OF_ASC_NODE":331.9738,"ARG_OF_PERICENTER":269.3207,"MEAN_ANOMALY":90.6993,"EPHEMERIS_TYPE":0,"CLASSIFICATION_TYPE":"U","NORAD_CAT_ID":48865,"ELEMENT_SET_NO":999,"REV_AT_EPOCH":26695,"BSTAR":0.00017705072,"MEAN_MOTION_DOT":5.639e-5,"MEAN_MOTION_DDOT":0},{"OBJECT_NAME":"CZ-2C R/B","OBJECT_ID":"2022-058K","EPOCH":"2026-04-02T16:08:25.744416","MEAN_MOTION":15.5611221,"ECCENTRICITY":0.004127,"INCLINATION":50.1881,"RA_OF_ASC_NODE":194.7552,"ARG_OF_PERICENTER":303.7949,"MEAN_ANOMALY":55.9095,"EPHEMERIS_TYPE":0,"CLASSIFICATION_TYPE":"U","NORAD_CAT_ID":52794,"ELEMENT_SET_NO":999,"REV_AT_EPOCH":21386,"BSTAR":0.00069661,"MEAN_MOTION_DOT":0.00051433,"MEAN_MOTION_DDOT":0},{"OBJECT_NAME":"CZ-2C R/B","OBJECT_ID":"2022-132E","EPOCH":"2026-04-02T18:21:07.481088","MEAN_MOTION":15.64161176,"ECCENTRICITY":0.001638,"INCLINATION":97.2951,"RA_OF_ASC_NODE":96.8533,"ARG_OF_PERICENTER":10.962,"MEAN_ANOMALY":349.1993,"EPHEMERIS_TYPE":0,"CLASSIFICATION_TYPE":"U","NORAD_CAT_ID":54039,"ELEMENT_SET_NO":999,"REV_AT_EPOCH":19413,"BSTAR":0.0006474,"MEAN_MOTION_DOT":0.00062063,"MEAN_MOTION_DDOT":0},{"OBJECT_NAME":"GSLV R/B","OBJECT_ID":"2022-138AN","EPOCH":"2026-04-02T14:05:17.530944","MEAN_MOTION":14.9692729,"ECCENTRICITY":0.00238585,"INCLINATION":87.3852,"RA_OF_ASC_NODE":158.3612,"ARG_OF_PERICENTER":68.0421,"MEAN_ANOMALY":292.3343,"EPHEMERIS_TYPE":0,"CLASSIFICATION_TYPE":"U","NORAD_CAT_ID":54149,"ELEMENT_SET_NO":999,"REV_AT_EPOCH":18750,"BSTAR":0.00033832158,"MEAN_MOTION_DOT":3.934e-5,"MEAN_MOTION_DDOT":0},{"OBJECT_NAME":"XRISM","OBJECT_ID":"2023-137A","EPOCH":"2026-04-02T19:23:27.862368","MEAN_MOTION":15.1179277,"ECCENTRICITY":0.0007871,"INCLINATION":31.0012,"RA_OF_ASC_NODE":127.6308,"ARG_OF_PERICENTER":281.45,"MEAN_ANOMALY":78.5255,"EPHEMERIS_TYPE":0,"CLASSIFICATION_TYPE":"U","NORAD_CAT_ID":57800,"ELEMENT_SET_NO":999,"REV_AT_EPOCH":14144,"BSTAR":0.00052046,"MEAN_MOTION_DOT":9.214e-5,"MEAN_MOTION_DDOT":0},{"OBJECT_NAME":"ACS3","OBJECT_ID":"2024-077B","EPOCH":"2026-04-02T19:48:45.866304","MEAN_MOTION":13.90776433,"ECCENTRICITY":0.0073221,"INCLINATION":97.1957,"RA_OF_ASC_NODE":28.5131,"ARG_OF_PERICENTER":21.9783,"MEAN_ANOMALY":338.4494,"EPHEMERIS_TYPE":0,"CLASSIFICATION_TYPE":"U","NORAD_CAT_ID":59588,"ELEMENT_SET_NO":999,"REV_AT_EPOCH":9755,"BSTAR":0.018999,"MEAN_MOTION_DOT":0.00024304,"MEAN_MOTION_DDOT":0},{"OBJECT_NAME":"HTV-X1","OBJECT_ID":"2025-241A","EPOCH":"2026-04-02T12:25:37.292736","MEAN_MOTION":15.32499008,"ECCENTRICITY":0.00072799,"INCLINATION":51.637,"RA_OF_ASC_NODE":318.216,"ARG_OF_PERICENTER":264.5129,"MEAN_ANOMALY":95.5023,"EPHEMERIS_TYPE":0,"CLASSIFICATION_TYPE":"U","NORAD_CAT_ID":66174,"ELEMENT_SET_NO":999,"REV_AT_EPOCH":2459,"BSTAR":6.3789873e-5,"MEAN_MOTION_DOT":1.66e-5,"MEAN_MOTION_DDOT":0},{"OBJECT_NAME":"SZ-21 MODULE","OBJECT_ID":"2025-246C","EPOCH":"2026-04-02T14:48:28.852704","MEAN_MOTION":15.70483759,"ECCENTRICITY":0.00027799,"INCLINATION":41.4746,"RA_OF_ASC_NODE":55.8608,"ARG_OF_PERICENTER":223.0414,"MEAN_ANOMALY":137.0212,"EPHEMERIS_TYPE":0,"CLASSIFICATION_TYPE":"U","NORAD_CAT_ID":66515,"ELEMENT_SET_NO":999,"REV_AT_EPOCH":2183,"BSTAR":0.00039708118,"MEAN_MOTION_DOT":0.00050186,"MEAN_MOTION_DDOT":0}]
